[{"OBJECT_NAME":"STARLINK-4112","OBJECT_ID":"2022-062AH","EPOCH":"2026-03-09T06:18:04.351104","MEAN_MOTION":15.08828528,"ECCENTRICITY":0.00012471,"INCLINATION":53.219,"RA_OF_ASC_NODE":26.0484,"ARG_OF_PERICENTER":90.2901,"MEAN_ANOMALY":269.8234,"EPHEMERIS_TYPE":0,"CLASSIFICATION_TYPE":"U","NORAD_CAT_ID":52861,"ELEMENT_SET_NO":999,"REV_AT_EPOCH":20586,"BSTAR":-5.3180629e-5,"MEAN_MOTION_DOT":-1.134e-5,"MEAN_MOTION_DDOT":0},{"OBJECT_NAME":"SL-16 DEB","OBJECT_ID":"1992-093JY","EPOCH":"2026-03-07T13:13:58.279008","MEAN_MOTION":15.07529046,"ECCENTRICITY":0.0041412,"INCLINATION":71.2754,"RA_OF_ASC_NODE":129.6393,"ARG_OF_PERICENTER":153.6297,"MEAN_ANOMALY":274.6618,"EPHEMERIS_TYPE":0,"CLASSIFICATION_TYPE":"U","NORAD_CAT_ID":39708,"ELEMENT_SET_NO":999,"REV_AT_EPOCH":64104,"BSTAR":0.0012088,"MEAN_MOTION_DOT":0.00018716,"MEAN_MOTION_DDOT":0}]
